[{"OBJECT_NAME":"YAOGAN-40 02B","OBJECT_ID":"2025-096B","EPOCH":"2026-03-09T23:00:58.966848","MEAN_MOTION":14.12426787,"ECCENTRICITY":0.00021775,"INCLINATION":85.9909,"RA_OF_ASC_NODE":232.3937,"ARG_OF_PERICENTER":96.5499,"MEAN_ANOMALY":263.5932,"EPHEMERIS_TYPE":0,"CLASSIFICATION_TYPE":"U","NORAD_CAT_ID":63919,"ELEMENT_SET_NO":999,"REV_AT_EPOCH":4256,"BSTAR":0.00013302659,"MEAN_MOTION_DOT":2.64e-6,"MEAN_MOTION_DDOT":0},{"OBJECT_NAME":"FENGYUN 1C DEB","OBJECT_ID":"1999-025AKG","EPOCH":"2026-03-09T13:09:47.086560","MEAN_MOTION":14.07024042,"ECCENTRICITY":0.00291126,"INCLINATION":98.7776,"RA_OF_ASC_NODE":99.8078,"ARG_OF_PERICENTER":88.7797,"MEAN_ANOMALY":74.7676,"EPHEMERIS_TYPE":0,"CLASSIFICATION_TYPE":"U","NORAD_CAT_ID":30542,"ELEMENT_SET_NO":999,"REV_AT_EPOCH":98139,"BSTAR":0.00026640895,"MEAN_MOTION_DOT":4.04e-6,"MEAN_MOTION_DDOT":0}]
